NORAD_CAT_ID,OBJECT_NAME,OBJECT_TYPE,EPOCH,MEAN_MOTION,ECCENTRICITY,INCLINATION,RA_OF_ASC_NODE,ARG_OF_PERICENTER,MEAN_ANOMALY,BSTAR,MEAN_MOTION_DOT,MEAN_MOTION_DDOT,TLE_LINE0,TLE_LINE1,TLE_LINE2,SEMIMAJOR_AXIS,PERIOD,APOGEE,PERIGEE,DECAYED
53616.0,STARLINK-4605,PAYLOAD,2024-03-13 10:17:13,15.0886201,0.0001495,53.2159,244.3034,85.8711,274.2452,0.00038428,5.837e-05,0.0,0 STARLINK-4605,1 53616U 22104AE  24073.42862898  .00005837  00000-0  38428-3 0  9994,2 53616  53.2159 244.3034 0001495  85.8711 274.2452 15.08862010 85568,6917.813,95.436,540.712,538.644,0.0
53616.0,STARLINK-4605,PAYLOAD,2024-03-14 03:46:26,15.08866666,6.99e-05,53.212,241.0301,311.3419,48.7513,0.00030483,4.57e-05,0.0,0 STARLINK-4605,1 53616U 22104AE  24074.15725632  .00004570  00000-0  30483-3 0  9995,2 53616  53.2120 241.0301 0000699 311.3419  48.7513 15.08866666 85679,6917.799,95.436,540.147,539.18,0.0
53616.0,STARLINK-4605,PAYLOAD,2024-03-14 10:08:00,15.08846493,0.0002577,53.2083,239.844,76.2553,283.8726,3.9801e-05,3.45e-06,0.0,0 STARLINK-4605,1 53616U 22104AE  24074.42222643  .00000345  00000-0  39801-4 0  9999,2 53616  53.2083 239.8440 0002577  76.2553 283.8726 15.08846493 85718,6917.861,95.437,541.508,537.943,0.0
53616.0,STARLINK-4605,PAYLOAD,2024-03-14 19:40:19,15.08837718,0.0001553,53.2162,238.0623,93.1539,266.963,-9.6139e-05,-1.818e-05,0.0,0 STARLINK-4605,1 53616U 22104AE  24074.81966818 -.00001818  00000-0 -96139-4 0  9996,2 53616  53.2162 238.0623 0001553  93.1539 266.9630 15.08837718 85777,6917.887,95.438,540.827,538.678,0.0
53616.0,STARLINK-4605,PAYLOAD,2024-03-14 21:15:42,15.08842379,7.65e-05,53.2169,237.7614,92.3207,267.7872,-5.7188e-05,-1.198e-05,0.0,0 STARLINK-4605,1 53616U 22104AE  24074.88590686 -.00001198  00000-0 -57188-4 0  9991,2 53616  53.2169 237.7614 0000765  92.3207 267.7872 15.08842379 86460,6917.873,95.437,540.267,539.209,0.0
53616.0,STARLINK-4605,PAYLOAD,2024-03-15 21:06:29,15.0884438,0.0001341,53.2152,233.3014,81.5479,278.5665,0.00019265,2.78e-05,0.0,0 STARLINK-4605,1 53616U 22104AE  24075.87950933  .00002780  00000-0  19265-3 0  9995,2 53616  53.2152 233.3014 0001341  81.5479 278.5665 15.08844380 86611,6917.867,95.437,540.66,538.804,0.0
53616.0,STARLINK-4605,PAYLOAD,2024-03-16 09:49:35,15.08834528,0.0001214,53.2143,230.9226,87.6737,272.4394,0.00028791,4.297e-05,0.0,0 STARLINK-4605,1 53616U 22104AE  24076.40943485  .00004297  00000-0  28791-3 0  9998,2 53616  53.2143 230.9226 0001214  87.6737 272.4394 15.08834528 86011,6917.897,95.438,540.602,538.922,0.0
53616.0,STARLINK-4605,PAYLOAD,2024-03-16 14:35:44,15.08837592,0.0001574,53.2149,230.0308,81.0523,279.0648,0.00015377,2.16e-05,0.0,0 STARLINK-4605,1 53616U 22104AE  24076.60815486  .00002160  00000-0  15377-3 0  9992,2 53616  53.2149 230.0308 0001574  81.0523 279.0648 15.08837592 86726,6917.888,95.438,540.842,538.664,0.0
53616.0,STARLINK-4605,PAYLOAD,2024-03-16 17:46:30,15.08837247,0.0001329,53.2158,229.4355,89.9325,270.1819,8.75e-05,1.105e-05,0.0,0 STARLINK-4605,1 53616U 22104AE  24076.74063391  .00001105  00000-0  87500-4 0  9993,2 53616  53.2158 229.4355 0001329  89.9325 270.1819 15.08837247 86746,6917.889,95.438,540.673,538.834,0.0
53616.0,STARLINK-4605,PAYLOAD,2024-03-17 14:26:31,15.08844144,0.0001262,53.2153,225.5697,101.0052,259.1082,0.00019783,2.862e-05,0.0,0 STARLINK-4605,1 53616U 22104AE  24077.60175154  .00002862  00000-0  19783-3 0  9998,2 53616  53.2153 225.5697 0001262 101.0052 259.1082 15.08844144 86873,6917.868,95.437,540.606,538.86,0.0
53616.0,STARLINK-4605,PAYLOAD,2024-03-17 16:01:54,15.0884543,0.0001291,53.2154,225.2725,96.0765,264.0374,0.00021237,3.094e-05,0.0,0 STARLINK-4605,1 53616U 22104AE  24077.66799123  .00003094  00000-0  21237-3 0  9997,2 53616  53.2154 225.2725 0001291  96.0765 264.0374 15.08845430 86204,6917.864,95.437,540.622,538.836,0.0
53616.0,STARLINK-4605,PAYLOAD,2024-03-18 19:03:27,15.08843923,0.0001418,53.2161,220.2196,84.8072,275.3082,0.00017973,2.574e-05,0.0,0 STARLINK-4605,1 53616U 22104AE  24078.79407347  .00002574  00000-0  17973-3 0  9990,2 53616  53.2161 220.2196 0001418  84.8072 275.3082 15.08843923 86370,6917.868,95.437,540.714,538.752,0.0
53616.0,STARLINK-4605,PAYLOAD,2024-03-19 09:21:56,15.08843416,0.0001607,53.216,217.5451,75.714,284.4031,0.00011476,1.539e-05,0.0,0 STARLINK-4605,1 53616U 22104AE  24079.39023441  .00001539  00000-0  11476-3 0  9998,2 53616  53.2160 217.5451 0001607  75.7140 284.4031 15.08843416 87145,6917.87,95.437,540.847,538.623,0.0
53616.0,STARLINK-4605,PAYLOAD,2024-03-20 09:12:43,15.08841726,0.00013,53.2161,213.0831,79.6588,280.4551,0.00019356,2.794e-05,0.0,0 STARLINK-4605,1 53616U 22104AE  24080.38383311  .00002794  00000-0  19356-3 0  9993,2 53616  53.2161 213.0831 0001300  79.6588 280.4551 15.08841726 86614,6917.875,95.437,540.639,538.841,0.0
53616.0,STARLINK-4605,PAYLOAD,2024-03-20 13:58:52,15.08836267,0.0001381,53.2149,212.1828,88.5897,271.5254,2.5377e-05,1.16e-06,0.0,0 STARLINK-4605,1 53616U 22104AE  24080.58255552  .00000116  00000-0  25377-4 0  9997,2 53616  53.2149 212.1828 0001381  88.5897 271.5254 15.08836267 87321,6917.892,95.438,540.712,538.801,0.0
53616.0,STARLINK-4605,PAYLOAD,2024-03-21 15:25:03,15.08835947,0.0001616,53.217,207.4394,107.8207,252.2961,9.8856e-05,1.285e-05,0.0,0 STARLINK-4605,1 53616U 22104AE  24081.64240140  .00001285  00000-0  98856-4 0  9992,2 53616  53.2170 207.4394 0001616 107.8207 252.2961 15.08835947 87483,6917.893,95.438,540.876,538.64,0.0
53616.0,STARLINK-4605,PAYLOAD,2024-03-22 12:05:03,15.08849519,0.0001331,53.2153,203.5657,62.6762,297.4366,0.00041155,6.27e-05,0.0,0 STARLINK-4605,1 53616U 22104AE  24082.50351707  .00006270  00000-0  41155-3 0  9998,2 53616  53.2153 203.5657 0001331  62.6762 297.4366 15.08849519 86930,6917.851,95.437,540.637,538.796,0.0
53616.0,STARLINK-4605,PAYLOAD,2024-03-22 13:40:26,15.08851445,0.0001334,53.2154,203.2685,63.4078,296.705,0.00043642,6.667e-05,0.0,0 STARLINK-4605,1 53616U 22104AE  24082.56975626  .00006667  00000-0  43642-3 0  9999,2 53616  53.2154 203.2685 0001334  63.4078 296.7050 15.08851445 87621,6917.845,95.437,540.633,538.788,0.0
53616.0,STARLINK-4605,PAYLOAD,2024-03-23 13:31:13,15.0883873,0.0001847,53.2158,198.8036,135.4747,224.6393,2.3947e-05,9.3e-07,0.0,0 STARLINK-4605,1 53616U 22104AE  24083.56335602  .00000093  00000-0  23947-4 0  9998,2 53616  53.2158 198.8036 0001847 135.4747 224.6393 15.08838730 87099,6917.884,95.438,541.027,538.472,0.0
53616.0,STARLINK-4605,PAYLOAD,2024-03-23 15:06:37,15.08834079,0.0001444,53.2167,198.5159,95.984,264.1317,-2.4576e-05,-6.79e-06,0.0,0 STARLINK-4605,1 53616U 22104AE  24083.62960141 -.00000679  00000-0 -24576-4 0  9998,2 53616  53.2167 198.5159 0001444  95.9840 264.1317 15.08834079 87782,6917.898,95.438,540.762,538.765,0.0
53616.0,STARLINK-4605,PAYLOAD,2024-03-24 13:22:01,15.08849726,0.000141,53.2166,194.3482,98.0985,262.0167,0.00032314,4.86e-05,0.0,0 STARLINK-4605,1 53616U 22104AE  24084.55695893  .00004860  00000-0  32314-3 0  9992,2 53616  53.2166 194.3482 0001410  98.0985 262.0167 15.08849726 87922,6917.851,95.437,540.691,538.74,0.0
53616.0,STARLINK-4605,PAYLOAD,2024-03-24 14:57:24,15.08852672,0.0001302,53.216,194.0485,106.6302,253.4833,0.00051686,7.95e-05,0.0,0 STARLINK-4605,1 53616U 22104AE  24084.62319779  .00007950  00000-0  51686-3 0  9992,2 53616  53.2160 194.0485 0001302 106.6302 253.4833 15.08852672 87259,6917.842,95.437,540.607,538.806,0.0
53616.0,STARLINK-4605,PAYLOAD,2024-03-25 00:29:42,15.08881554,0.0001224,53.2159,192.2638,103.918,256.1948,0.0011972,0.00018838,0.0,0 STARLINK-4605,1 53616U 22104AE  24085.02062926  .00018838  00000-0  11972-2 0  9996,2 53616  53.2159 192.2638 0001224 103.9180 256.1948 15.08881554 87319,6917.753,95.435,540.465,538.772,0.0
53616.0,STARLINK-4605,PAYLOAD,2024-03-25 13:12:48,15.08856301,0.0001606,53.2161,189.8865,105.5682,254.5487,0.00051593,7.936e-05,0.0,0 STARLINK-4605,1 53616U 22104AE  24085.55055620  .00007936  00000-0  51593-3 0  9998,2 53616  53.2161 189.8865 0001606 105.5682 254.5487 15.08856301 87395,6917.831,95.437,540.807,538.585,0.0
53616.0,STARLINK-4605,PAYLOAD,2024-03-26 13:03:36,15.08811785,0.0001459,53.2166,185.4268,81.3335,278.7823,-0.00015851,-2.808e-05,0.0,0 STARLINK-4605,1 53616U 22104AE  24086.54416787 -.00002808  00000-0 -15851-3 0  9995,2 53616  53.2166 185.4268 0001459  81.3335 278.7823 15.08811785 87547,6917.967,95.439,540.841,538.822,0.0
53616.0,STARLINK-4605,PAYLOAD,2024-03-27 12:54:23,15.08848904,0.0001526,53.2163,180.968,71.9479,288.168,0.001266,0.00019923,0.0,0 STARLINK-4605,1 53616U 22104AE  24087.53777532  .00019923  00000-0  12660-2 0  9991,2 53616  53.2163 180.9680 0001526  71.9479 288.1680 15.08848904 87696,6917.853,95.437,540.774,538.663,0.0
53616.0,STARLINK-4605,PAYLOAD,2024-03-27 16:05:09,15.08859164,0.0001531,53.2163,180.3735,71.2259,288.8899,0.0014463,0.00022817,0.0,0 STARLINK-4605,1 53616U 22104AE  24087.67025350  .00022817  00000-0  14463-2 0  9999,2 53616  53.2163 180.3735 0001531  71.2259 288.8899 15.08859164 88393,6917.822,95.436,540.746,538.628,0.0
53616.0,STARLINK-4605,PAYLOAD,2024-03-28 12:45:10,15.08851889,0.0001466,53.216,176.5063,70.2973,289.8177,0.00080211,0.00012505,0.0,0 STARLINK-4605,1 53616U 22104AE  24088.53137025  .00012505  00000-0  80211-3 0  9996,2 53616  53.2160 176.5063 0001466  70.2973 289.8177 15.08851889 87845,6917.844,95.437,540.723,538.695,0.0
53616.0,STARLINK-4605,PAYLOAD,2024-03-28 22:17:28,15.08865468,0.0001369,53.2163,174.7237,77.5214,282.5932,0.001072,0.00016826,0.0,0 STARLINK-4605,1 53616U 22104AE  24088.92880432  .00016826  00000-0  10720-2 0  9993,2 53616  53.2163 174.7237 0001369  77.5214 282.5932 15.08865468 88580,6917.803,95.436,540.615,538.72,0.0
53616.0,STARLINK-4605,PAYLOAD,2024-03-29 12:35:57,15.08839332,0.0001695,53.2167,172.0453,78.5362,281.582,-1.3089e-05,-4.96e-06,0.0,0 STARLINK-4605,1 53616U 22104AE  24089.52496926 -.00000496  00000-0 -13089-4 0  9992,2 53616  53.2167 172.0453 0001695  78.5362 281.5820 15.08839332 87992,6917.882,95.438,540.92,538.575,0.0
